PEHUENSAT 1 [+]         
1 29712U 07001D   07022.24022349  .00000350  00000-0  53720-4 0   390
2 29712  97.9431  83.3141 0013495 239.1636 120.8234 14.79517800  1753