Satellite:  PEHUENSAT 1 [+]         
Catalog number:  29712
Epoch time:  7022.24022349 
Element set:  39 
Inclination:  97.9431 
RA of node:  83.3141 
Eccentricity:  .0013495 
Arg of perigee:  239.1636 
Mean anomaly:  120.8234 
Mean motion:  14.795178 
Decay rate:  3.50E-06
Epoch rev:  175 

